{
    "links": {
        "self": "http://www.neowsapp.com/rest/v1/neo/3797493?api_key=iIulBulltgU6a56xZRHN4H3l9WmuAYTsLGpBGhQ2"
    },
    "id": "3797493",
    "neo_reference_id": "3797493",
    "name": "(2018 AZ3)",
    "designation": "2018 AZ3",
    "nasa_jpl_url": "http://ssd.jpl.nasa.gov/sbdb.cgi?sstr=3797493",
    "absolute_magnitude_h": 25.0,
    "estimated_diameter": {
        "kilometers": {
            "estimated_diameter_min": 0.02658,
            "estimated_diameter_max": 0.0594346868
        },
        "meters": {
            "estimated_diameter_min": 26.58,
            "estimated_diameter_max": 59.4346868419
        },
        "miles": {
            "estimated_diameter_min": 0.0165160412,
            "estimated_diameter_max": 0.0369309908
        },
        "feet": {
            "estimated_diameter_min": 87.2047272,
            "estimated_diameter_max": 194.9956979785
        }
    },
    "is_potentially_hazardous_asteroid": false,
    "close_approach_data": [
        {
            "close_approach_date": "2012-01-15",
            "close_approach_date_full": "2012-Jan-15 19:04",
            "epoch_date_close_approach": 1326654240000,
            "relative_velocity": {
                "kilometers_per_second": "25.2394343596",
                "kilometers_per_hour": "90861.9636944952",
                "miles_per_hour": "56458.090718949"
            },
            "miss_distance": {
                "astronomical": "0.2291773481",
                "lunar": "89.1499884109",
                "kilometers": "34284443.128008547",
                "miles": "21303365.1095780686"
            },
            "orbiting_body": "Earth"
        },
        {
            "close_approach_date": "2016-07-27",
            "close_approach_date_full": "2016-Jul-27 01:26",
            "epoch_date_close_approach": 1469582760000,
            "relative_velocity": {
                "kilometers_per_second": "18.8279393737",
                "kilometers_per_hour": "67780.5817452926",
                "miles_per_hour": "42116.2175850125"
            },
            "miss_distance": {
                "astronomical": "0.3553954419",
                "lunar": "138.2488268991",
                "kilometers": "53166401.115948753",
                "miles": "33036069.7505406714"
            },
            "orbiting_body": "Earth"
        },
        {
            "close_approach_date": "2018-01-06",
            "close_approach_date_full": "2018-Jan-06 18:32",
            "epoch_date_close_approach": 1515263520000,
            "relative_velocity": {
                "kilometers_per_second": "18.6675892737",
                "kilometers_per_hour": "67203.3213852782",
                "miles_per_hour": "41757.5304463136"
            },
            "miss_distance": {
                "astronomical": "0.0711535148",
                "lunar": "27.6787172572",
                "kilometers": "10644414.257093476",
                "miles": "6614132.3179669288"
            },
            "orbiting_body": "Earth"
        },
        {
            "close_approach_date": "2122-07-08",
            "close_approach_date_full": "2122-Jul-08 01:28",
            "epoch_date_close_approach": 4812917280000,
            "relative_velocity": {
                "kilometers_per_second": "18.7122639476",
                "kilometers_per_hour": "67364.150211333",
                "miles_per_hour": "41857.4632243697"
            },
            "miss_distance": {
                "astronomical": "0.2624181081",
                "lunar": "102.0806440509",
                "kilometers": "39257190.021189747",
                "miles": "24393286.7474306286"
            },
            "orbiting_body": "Earth"
        },
        {
            "close_approach_date": "2187-01-24",
            "close_approach_date_full": "2187-Jan-24 22:20",
            "epoch_date_close_approach": 6849958800000,
            "relative_velocity": {
                "kilometers_per_second": "30.5813751381",
                "kilometers_per_hour": "110092.950497259",
                "miles_per_hour": "68407.4780464774"
            },
            "miss_distance": {
                "astronomical": "0.4116021874",
                "lunar": "160.1132508986",
                "kilometers": "61574810.522380838",
                "miles": "38260813.0811300444"
            },
            "orbiting_body": "Earth"
        }
    ],
    "orbital_data": {
        "orbit_id": "2",
        "orbit_determination_date": "2019-07-19 05:26:32",
        "first_observation_date": "2018-01-10",
        "last_observation_date": "2018-01-15",
        "data_arc_in_days": 5,
        "observations_used": 37,
        "orbit_uncertainty": "8",
        "minimum_orbit_intersection": ".0585024",
        "jupiter_tisserand_invariant": "5.364",
        "epoch_osculation": "2458132.5",
        "eccentricity": ".4827269586750386",
        "semi_major_axis": "1.123773127448027",
        "inclination": "25.58799769654359",
        "ascending_node_longitude": "112.8075612268543",
        "orbital_period": "435.127359121547",
        "perihelion_distance": ".5812975433943042",
        "perihelion_argument": "245.2102972532997",
        "aphelion_distance": "1.666248711501749",
        "perihelion_time": "2458061.415092874877",
        "mean_anomaly": "58.81166979871724",
        "mean_motion": ".827343977466236",
        "equinox": "J2000",
        "orbit_class": {
            "orbit_class_type": "APO",
            "orbit_class_description": "Near-Earth asteroid orbits which cross the Earth’s orbit similar to that of 1862 Apollo",
            "orbit_class_range": "a (semi-major axis) > 1.0 AU; q (perihelion) < 1.017 AU"
        }
    },
    "is_sentry_object": false
}